CCSDS_OMM_VERS,COMMENT,CREATION_DATE,ORIGINATOR,OBJECT_NAME,OBJECT_ID,CENTER_NAME,REF_FRAME,TIME_SYSTEM,MEAN_ELEMENT_THEORY,EPOCH,MEAN_MOTION,ECCENTRICITY,INCLINATION,RA_OF_ASC_NODE,ARG_OF_PERICENTER,MEAN_ANOMALY,EPHEMERIS_TYPE,CLASSIFICATION_TYPE,NORAD_CAT_ID,ELEMENT_SET_NO,REV_AT_EPOCH,BSTAR,MEAN_MOTION_DOT,MEAN_MOTION_DDOT,SEMIMAJOR_AXIS,PERIOD,APOAPSIS,PERIAPSIS,OBJECT_TYPE,RCS_SIZE,COUNTRY_CODE,LAUNCH_DATE,SITE,DECAY_DATE,FILE,GP_ID,TLE_LINE0,TLE_LINE1,TLE_LINE2,NORAD_KEY
3.0,GENERATED VIA SPACE-TRACK.ORG API,2026-05-06T14:46:56,18 SPCS,EXPRESS AM-7,2015-012A,EARTH,TEME,UTC,SGP4,2026-05-06T11:37:03.857088,1.00272071,0.000319,0.0104,290.0911,115.6377,32.8774,0,U,40505,999,4058,0.00000000000000,0.00000158,0.0000000000000,42164.652,1436.093,35799.967,35773.066,PAYLOAD,LARGE,CIS,2015-03-18,TTMTR,,5177159,322297830,0 EXPRESS AM-7,1 40505U 15012A   26126.48407242  .00000158  00000-0  00000+0 0  9994,2 40505   0.0104 290.0911 0003190 115.6377  32.8774  1.00272071 40584,40505
3.0,GENERATED VIA SPACE-TRACK.ORG API,2026-05-06T14:46:56,18 SPCS,INTELSAT 37E,2017-059A,EARTH,TEME,UTC,SGP4,2026-05-06T07:42:53.171136,1.00270562,0.0002755,0.0106,284.6609,128.9701,268.2651,0,U,42950,999,3164,0.00000000000000,-0.00000133,0.0000000000000,42165.075,1436.114,35798.556,35775.323,PAYLOAD,LARGE,ITSO,2017-09-29,FRGUI,,5177188,322298727,0 INTELSAT 37E,1 42950U 17059A   26126.32144874 -.00000133  00000-0  00000+0 0  9999,2 42950   0.0106 284.6609 0002755 128.9701 268.2651  1.00270562 31648,42950
3.0,GENERATED VIA SPACE-TRACK.ORG API,2026-05-06T14:46:56,18 SPCS,DIRECTV 12,2009-075A,EARTH,TEME,UTC,SGP4,2026-05-06T10:56:30.245568,1.00271314,4.21e-05,0.0109,65.6539,11.0881,208.9908,0,U,36131,999,4613,0.00000000000000,-0.00000096,0.0000000000000,42164.864,1436.104,35788.504,35784.954,PAYLOAD,LARGE,US,2009-12-29,TTMTR,,5177348,322296516,0 DIRECTV 12,1 36131U 09075A   26126.45590562 -.00000096  00000-0  00000+0 0  9993,2 36131   0.0109  65.6539 0000421  11.0881 208.9908  1.00271314 46135,36131
3.0,GENERATED VIA SPACE-TRACK.ORG API,2026-05-06T10:08:52,18 SPCS,MEXSAT 3,2012-075B,EARTH,TEME,UTC,SGP4,2026-05-06T04:04:38.736192,1.00269211,0.00013793,0.0113,260.1646,168.1529,102.0684,0,U,39035,999,663,0.00000000000000,-0.00000017,0.0000000000000,42165.454,1436.134,35793.134,35781.503,PAYLOAD,LARGE,MEX,2012-12-19,FRGUI,,5176958,322272506,0 MEXSAT 3,1 39035U 12075B   26126.16989278 -.00000017  00000-0  00000-0 0  9991,2 39035   0.0113 260.1646 0001379 168.1529 102.0684  1.00269211  6632,39035
3.0,GENERATED VIA SPACE-TRACK.ORG API,2026-05-06T14:46:56,18 SPCS,GALAXY 18,2008-024A,EARTH,TEME,UTC,SGP4,2026-05-06T08:24:38.446272,1.00271976,0.0003202,0.0113,280.7752,128.399,178.1932,0,U,32951,999,4543,0.00000000000000,0.00000033,0.0000000000000,42164.678,1436.094,35800.045,35773.042,PAYLOAD,LARGE,US,2008-05-21,SEAL,,5177006,322293045,0 GALAXY 18,1 32951U 08024A   26126.35044498  .00000033  00000-0  00000+0 0  9993,2 32951   0.0113 280.7752 0003202 128.3990 178.1932  1.00271976 45437,32951
3.0,GENERATED VIA SPACE-TRACK.ORG API,2026-05-06T14:46:56,18 SPCS,SYRACUSE 4A,2021-095B,EARTH,TEME,UTC,SGP4,2026-05-06T11:38:41.201376,1.00270879,0.000147,0.0114,300.4781,96.2456,47.8104,0,U,49333,999,1752,0.00000000000000,0.00000143,0.0000000000000,42164.986,1436.11,35793.049,35780.653,PAYLOAD,MEDIUM,FR,2021-10-24,FRGUI,,5177291,322301442,0 SYRACUSE 4A,1 49333U 21095B   26126.48519909  .00000143  00000-0  00000+0 0  9998,2 49333   0.0114 300.4781 0001470  96.2456  47.8104  1.00270879 17520,49333
3.0,GENERATED VIA SPACE-TRACK.ORG API,2026-05-06T14:46:56,18 SPCS,ECHOSTAR 19,2016-079A,EARTH,TEME,UTC,SGP4,2026-05-06T10:58:00.100704,1.00273008,0.0001474,0.0114,277.5425,146.1783,228.0043,0,U,41893,999,3428,0.00000000000000,-0.00000131,0.0000000000000,42164.389,1436.079,35792.469,35780.039,PAYLOAD,LARGE,US,2016-12-18,AFETR,,5177352,322298589,0 ECHOSTAR 19,1 41893U 16079A   26126.45694561 -.00000131  00000-0  00000+0 0  9990,2 41893   0.0114 277.5425 0001474 146.1783 228.0043  1.00273008 34288,41893
3.0,GENERATED VIA SPACE-TRACK.ORG API,2026-05-06T14:56:52,18 SPCS,GSAT 20,2024-214A,EARTH,TEME,UTC,SGP4,2026-05-06T11:06:53.550720,1.00271176,0.0001744,0.0114,230.4137,210.4851,18.113,0,U,62028,999,548,0.00000000000000,-0.00000012,0.0000000000000,42164.903,1436.106,35794.121,35779.414,PAYLOAD,,IND,2024-11-18,AFETR,,5177648,322309116,0 GSAT 20,1 62028U 24214A   26126.46311980 -.00000012  00000-0  00000+0 0  9993,2 62028   0.0114 230.4137 0001744 210.4851  18.1130  1.00271176  5489,62028
3.0,GENERATED VIA SPACE-TRACK.ORG API,2026-05-06T14:56:52,18 SPCS,SES 19,2023-038B,EARTH,TEME,UTC,SGP4,2026-05-06T12:27:38.651904,1.00272369,0.0001923,0.0117,340.2378,67.0544,229.0993,0,U,55971,999,1167,0.00000000000000,0.00000095,0.0000000000000,42164.568,1436.089,35794.541,35778.325,PAYLOAD,LARGE,SES,2023-03-17,AFETR,,5177498,322305103,0 SES 19,1 55971U 23038B   26126.51919736  .00000095  00000-0  00000+0 0  9994,2 55971   0.0117 340.2378 0001923  67.0544 229.0993  1.00272369 11675,55971
3.0,GENERATED VIA SPACE-TRACK.ORG API,2026-05-06T14:56:52,18 SPCS,OVZON-3,2024-003A,EARTH,TEME,UTC,SGP4,2026-05-06T11:42:48.306240,1.002732,2.39e-05,0.0117,211.1345,236.6933,11.9478,0,U,58698,999,703,0.00000000000000,0.00000059,0.0000000000000,42164.335,1436.077,35787.208,35785.193,PAYLOAD,LARGE,SWED,2024-01-03,AFETR,,5177576,322307636,0 OVZON-3,1 58698U 24003A   26126.48805910  .00000059  00000-0  00000+0 0  9990,2 58698   0.0117 211.1345 0000239 236.6933  11.9478  1.00273200  7035,58698
3.0,GENERATED VIA SPACE-TRACK.ORG API,2026-05-05T22:46:21,18 SPCS,USA 342,2023-008A,EARTH,TEME,UTC,SGP4,2026-05-05T06:27:06.499008,1.00272078,2.93e-05,0.0119,146.9968,104.4324,92.3097,0,U,55263,999,1208,0.00000000000000,0.00000146,0.0000000000000,42164.65,1436.093,35787.75,35785.279,PAYLOAD,,US,2023-01-15,AFETR,,5175833,322197556,0 USA 342,1 55263U 23008A   26125.26882522  .00000146  00000-0  00000+0 0  9995,2 55263   0.0119 146.9968 0000293 104.4324  92.3097  1.00272078 12087,55263
3.0,GENERATED VIA SPACE-TRACK.ORG API,2026-05-06T14:56:52,18 SPCS,EUTELSAT QUANTUM,2021-069B,EARTH,TEME,UTC,SGP4,2026-05-06T11:39:18.641088,1.00272705,0.0002387,0.012,323.4528,80.0872,43.3434,0,U,49056,999,1751,0.00000000000000,0.00000134,0.0000000000000,42164.474,1436.084,35796.404,35776.274,PAYLOAD,LARGE,EUTE,2021-07-30,FRGUI,,5177377,322302597,0 EUTELSAT QUANTUM,1 49056U 21069B   26126.48563242  .00000134  00000-0  00000+0 0  9990,2 49056   0.0120 323.4528 0002387  80.0872  43.3434  1.00272705 17510,49056
3.0,GENERATED VIA SPACE-TRACK.ORG API,2026-05-06T14:46:56,18 SPCS,INTELSAT 31,2016-035A,EARTH,TEME,UTC,SGP4,2026-05-06T10:58:37.542144,1.00270846,0.0001849,0.0121,246.2259,35.887,11.8202,0,U,41581,999,3626,0.00000000000000,-0.00000143,0.0000000000000,42164.995,1436.11,35794.657,35779.064,PAYLOAD,LARGE,ITSO,2016-06-09,TTMTR,,5177174,322298024,0 INTELSAT 31,1 41581U 16035A   26126.45737896 -.00000143  00000-0  00000+0 0  9998,2 41581   0.0121 246.2259 0001849  35.8870  11.8202  1.00270846 36267,41581
3.0,GENERATED VIA SPACE-TRACK.ORG API,2026-05-06T14:46:56,18 SPCS,SIRIUS FM-5,2009-034A,EARTH,TEME,UTC,SGP4,2026-05-06T11:01:07.301856,1.00270618,2.43e-05,0.0121,280.5566,329.118,53.7788,0,U,35493,999,4622,0.00000000000000,-0.00000192,0.0000000000000,42165.059,1436.114,35787.949,35785.9,PAYLOAD,LARGE,US,2009-06-30,TTMTR,,5177345,322295165,0 SIRIUS FM-5,1 35493U 09034A   26126.45911229 -.00000192  00000-0  00000+0 0  9992,2 35493   0.0121 280.5566 0000243 329.1180  53.7788  1.00270618 46222,35493
3.0,GENERATED VIA SPACE-TRACK.ORG API,2026-05-06T14:46:56,18 SPCS,DIRECTV 14,2014-078B,EARTH,TEME,UTC,SGP4,2026-05-06T11:23:05.053920,1.00271535,4.24e-05,0.0124,307.0701,192.8666,155.9399,0,U,40333,999,4162,0.00000000000000,-0.00000118,0.0000000000000,42164.802,1436.1,35788.455,35784.879,PAYLOAD,LARGE,US,2014-12-06,FRGUI,,5177155,322297288,0 DIRECTV 14,1 40333U 14078B   26126.47436405 -.00000118  00000-0  00000+0 0  9993,2 40333   0.0124 307.0701 0000424 192.8666 155.9399  1.00271535 41626,40333
3.0,GENERATED VIA SPACE-TRACK.ORG API,2026-05-06T15:06:46,18 SPCS,VINASAT 1,2008-018A,EARTH,TEME,UTC,SGP4,2026-05-06T12:03:23.828832,1.00269986,0.0002069,0.0124,300.1341,135.7818,101.2516,0,U,32767,999,6617,0.00000000000000,-0.00000321,0.0000000000000,42165.236,1436.123,35795.825,35778.377,PAYLOAD,LARGE,VTNM,2008-04-18,FRGUI,,5177793,322312733,0 VINASAT 1,1 32767U 08018A   26126.50235913 -.00000321  00000-0  00000+0 0  9993,2 32767   0.0124 300.1341 0002069 135.7818 101.2516  1.00269986 66173,32767
3.0,GENERATED VIA SPACE-TRACK.ORG API,2026-05-06T14:46:56,18 SPCS,ES'HAIL 2,2018-090A,EARTH,TEME,UTC,SGP4,2026-05-06T11:32:56.752224,1.00271961,0.0001646,0.0125,273.491,160.4904,349.408,0,U,43700,999,2725,0.00000000000000,0.00000152,0.0000000000000,42164.683,1436.094,35793.488,35779.607,PAYLOAD,,QAT,2018-11-15,AFETR,,5177204,322298422,0 ES'HAIL 2,1 43700U 18090A   26126.48121241  .00000152  00000-0  00000+0 0  9999,2 43700   0.0125 273.4910 0001646 160.4904 349.4080  1.00271961 27252,43700
3.0,GENERATED VIA SPACE-TRACK.ORG API,2026-05-06T14:46:56,18 SPCS,ASIASAT 9,2017-057A,EARTH,TEME,UTC,SGP4,2026-05-06T12:00:31.605984,1.00270864,0.0002319,0.0125,300.0856,101.6422,124.8815,0,U,42942,999,3144,0.00000000000000,-0.00000352,0.0000000000000,42164.99,1436.11,35796.633,35777.077,PAYLOAD,LARGE,AC,2017-09-28,TTMTR,,5177188,322298724,0 ASIASAT 9,1 42942U 17057A   26126.50036581 -.00000352  00000-0  00000+0 0  9996,2 42942   0.0125 300.0856 0002319 101.6422 124.8815  1.00270864 31443,42942
3.0,GENERATED VIA SPACE-TRACK.ORG API,2026-05-06T14:46:56,18 SPCS,INTELSAT 21,2012-045A,EARTH,TEME,UTC,SGP4,2026-05-06T11:09:14.025024,1.0027116,0.0002076,0.0126,24.9727,33.2145,275.45,0,U,38749,999,5010,0.00000000000000,-0.00000277,0.0000000000000,42164.907,1436.106,35795.526,35778.019,PAYLOAD,LARGE,ITSO,2012-08-19,SEAL,,5177132,322296457,0 INTELSAT 21,1 38749U 12045A   26126.46474566 -.00000277  00000-0  00000+0 0  9998,2 38749   0.0126  24.9727 0002076  33.2145 275.4500  1.00271160 50103,38749
